{
    "week": 296,
    "satellites": [
        {
            "Name": "GSAT0208 (GALILEO 11)",
            "Line1": "1 41175U 15079B   24343.17739758  .00000053  00000+0  00000+0 0  9999",
            "Line2": "2 41175  55.5078 116.5310 0001368 350.5296   9.4426  1.70474253 55711",
            "SatelliteNumber": "41175",
            "Classification": "U",
            "LaunchYear": "15",
            "LaunchNumber": "079",
            "PieceOfLaunch": "B",
            "EpochYear": "24",
            "EpochDay": 343.17739758,
            "FirstDerivativeMeanMotion": 5.3e-07,
            "SecondDerivativeMeanMotion": "00000+0",
            "BSTAR": "00000+0",
            "SetNumber": "999",
            "Inclination": 55.5078,
            "RAAN": 116.531,
            "Eccentricity": 0.0001368,
            "ArgumentOfPerigee": 350.5296,
            "MeanAnomaly": 9.4426,
            "MeanMotion": 1.70474253,
            "RevolutionNumber": "5571"
        },
        {
            "Name": "GSAT0211 (GALILEO 14)",
            "Line1": "1 41549U 16030A   24342.12759932  .00000027  00000+0  00000+0 0  9993",
            "Line2": "2 41549  55.2898 237.0193 0003754   3.2605 356.8204  1.70472963 53175",
            "SatelliteNumber": "41549",
            "Classification": "U",
            "LaunchYear": "16",
            "LaunchNumber": "030",
            "PieceOfLaunch": "A",
            "EpochYear": "24",
            "EpochDay": 342.12759932,
            "FirstDerivativeMeanMotion": 2.7e-07,
            "SecondDerivativeMeanMotion": "00000+0",
            "BSTAR": "00000+0",
            "SetNumber": "999",
            "Inclination": 55.2898,
            "RAAN": 237.0193,
            "Eccentricity": 0.0003754,
            "ArgumentOfPerigee": 3.2605,
            "MeanAnomaly": 356.8204,
            "MeanMotion": 1.70472963,
            "RevolutionNumber": "5317"
        },
        {
            "Name": "GSAT0210 (GALILEO 13)",
            "Line1": "1 41550U 16030B   24342.38554393  .00000025  00000+0  00000+0 0  9995",
            "Line2": "2 41550  55.2889 237.0106 0000961 242.7642 117.3033  1.70473373 53175",
            "SatelliteNumber": "41550",
            "Classification": "U",
            "LaunchYear": "16",
            "LaunchNumber": "030",
            "PieceOfLaunch": "B",
            "EpochYear": "24",
            "EpochDay": 342.38554393,
            "FirstDerivativeMeanMotion": 2.5e-07,
            "SecondDerivativeMeanMotion": "00000+0",
            "BSTAR": "00000+0",
            "SetNumber": "999",
            "Inclination": 55.2889,
            "RAAN": 237.0106,
            "Eccentricity": 9.61e-05,
            "ArgumentOfPerigee": 242.7642,
            "MeanAnomaly": 117.3033,
            "MeanMotion": 1.70473373,
            "RevolutionNumber": "5317"
        },
        {
            "Name": "GSAT0207 (GALILEO 15)",
            "Line1": "1 41859U 16069A   24344.42419600  .00000047  00000+0  00000+0 0  9991",
            "Line2": "2 41859  55.1762 116.4578 0002018 305.6908  54.2631  1.70474323 49947",
            "SatelliteNumber": "41859",
            "Classification": "U",
            "LaunchYear": "16",
            "LaunchNumber": "069",
            "PieceOfLaunch": "A",
            "EpochYear": "24",
            "EpochDay": 344.424196,
            "FirstDerivativeMeanMotion": 4.7e-07,
            "SecondDerivativeMeanMotion": "00000+0",
            "BSTAR": "00000+0",
            "SetNumber": "999",
            "Inclination": 55.1762,
            "RAAN": 116.4578,
            "Eccentricity": 0.0002018,
            "ArgumentOfPerigee": 305.6908,
            "MeanAnomaly": 54.2631,
            "MeanMotion": 1.70474323,
            "RevolutionNumber": "4994"
        },
        {
            "Name": "GSAT0212 (GALILEO 16)",
            "Line1": "1 41860U 16069B   24343.10513690  .00000053  00000+0  00000+0 0  9998",
            "Line2": "2 41860  55.1739 116.4905 0001517  26.6671 333.3154  1.70474540 50176",
            "SatelliteNumber": "41860",
            "Classification": "U",
            "LaunchYear": "16",
            "LaunchNumber": "069",
            "PieceOfLaunch": "B",
            "EpochYear": "24",
            "EpochDay": 343.1051369,
            "FirstDerivativeMeanMotion": 5.3e-07,
            "SecondDerivativeMeanMotion": "00000+0",
            "BSTAR": "00000+0",
            "SetNumber": "999",
            "Inclination": 55.1739,
            "RAAN": 116.4905,
            "Eccentricity": 0.0001517,
            "ArgumentOfPerigee": 26.6671,
            "MeanAnomaly": 333.3154,
            "MeanMotion": 1.7047454,
            "RevolutionNumber": "5017"
        },
        {
            "Name": "GSAT0213 (GALILEO 17)",
            "Line1": "1 41861U 16069C   24342.88682382  .00000053  00000+0  00000+0 0  9998",
            "Line2": "2 41861  55.1754 116.5036 0002292 265.7667  94.1817  1.70474820 50036",
            "SatelliteNumber": "41861",
            "Classification": "U",
            "LaunchYear": "16",
            "LaunchNumber": "069",
            "PieceOfLaunch": "C",
            "EpochYear": "24",
            "EpochDay": 342.88682382,
            "FirstDerivativeMeanMotion": 5.3e-07,
            "SecondDerivativeMeanMotion": "00000+0",
            "BSTAR": "00000+0",
            "SetNumber": "999",
            "Inclination": 55.1754,
            "RAAN": 116.5036,
            "Eccentricity": 0.0002292,
            "ArgumentOfPerigee": 265.7667,
            "MeanAnomaly": 94.1817,
            "MeanMotion": 1.7047482,
            "RevolutionNumber": "5003"
        },
        {
            "Name": "GSAT0214 (GALILEO 18)",
            "Line1": "1 41862U 16069D   24343.03226209  .00000053  00000+0  00000+0 0  9999",
            "Line2": "2 41862  55.1740 116.4929 0001375 260.9402  99.0190  1.70474687 50160",
            "SatelliteNumber": "41862",
            "Classification": "U",
            "LaunchYear": "16",
            "LaunchNumber": "069",
            "PieceOfLaunch": "D",
            "EpochYear": "24",
            "EpochDay": 343.03226209,
            "FirstDerivativeMeanMotion": 5.3e-07,
            "SecondDerivativeMeanMotion": "00000+0",
            "BSTAR": "00000+0",
            "SetNumber": "999",
            "Inclination": 55.174,
            "RAAN": 116.4929,
            "Eccentricity": 0.0001375,
            "ArgumentOfPerigee": 260.9402,
            "MeanAnomaly": 99.019,
            "MeanMotion": 1.70474687,
            "RevolutionNumber": "5016"
        },
        {
            "Name": "GSAT0215 (GALILEO 19)",
            "Line1": "1 43055U 17079A   24343.52222391  .00000021  00000+0  00000+0 0  9994",
            "Line2": "2 43055  55.2662 236.8003 0001363 329.0988  30.9663  1.70473692 43518",
            "SatelliteNumber": "43055",
            "Classification": "U",
            "LaunchYear": "17",
            "LaunchNumber": "079",
            "PieceOfLaunch": "A",
            "EpochYear": "24",
            "EpochDay": 343.52222391,
            "FirstDerivativeMeanMotion": 2.1e-07,
            "SecondDerivativeMeanMotion": "00000+0",
            "BSTAR": "00000+0",
            "SetNumber": "999",
            "Inclination": 55.2662,
            "RAAN": 236.8003,
            "Eccentricity": 0.0001363,
            "ArgumentOfPerigee": 329.0988,
            "MeanAnomaly": 30.9663,
            "MeanMotion": 1.70473692,
            "RevolutionNumber": "4351"
        },
        {
            "Name": "GSAT0216 (GALILEO 20)",
            "Line1": "1 43056U 17079B   24342.05404865  .00000027  00000+0  00000+0 0  9996",
            "Line2": "2 43056  55.2673 236.8407 0002756 311.6894  48.3660  1.70473826 43507",
            "SatelliteNumber": "43056",
            "Classification": "U",
            "LaunchYear": "17",
            "LaunchNumber": "079",
            "PieceOfLaunch": "B",
            "EpochYear": "24",
            "EpochDay": 342.05404865,
            "FirstDerivativeMeanMotion": 2.7e-07,
            "SecondDerivativeMeanMotion": "00000+0",
            "BSTAR": "00000+0",
            "SetNumber": "999",
            "Inclination": 55.2673,
            "RAAN": 236.8407,
            "Eccentricity": 0.0002756,
            "ArgumentOfPerigee": 311.6894,
            "MeanAnomaly": 48.366,
            "MeanMotion": 1.70473826,
            "RevolutionNumber": "4350"
        },
        {
            "Name": "GSAT0217 (GALILEO 21)",
            "Line1": "1 43057U 17079C   24342.27460568  .00000026  00000+0  00000+0 0  9992",
            "Line2": "2 43057  55.2652 236.8331 0002717 343.2527  16.8163  1.70473649 43491",
            "SatelliteNumber": "43057",
            "Classification": "U",
            "LaunchYear": "17",
            "LaunchNumber": "079",
            "PieceOfLaunch": "C",
            "EpochYear": "24",
            "EpochDay": 342.27460568,
            "FirstDerivativeMeanMotion": 2.6e-07,
            "SecondDerivativeMeanMotion": "00000+0",
            "BSTAR": "00000+0",
            "SetNumber": "999",
            "Inclination": 55.2652,
            "RAAN": 236.8331,
            "Eccentricity": 0.0002717,
            "ArgumentOfPerigee": 343.2527,
            "MeanAnomaly": 16.8163,
            "MeanMotion": 1.70473649,
            "RevolutionNumber": "4349"
        }
    ]
}